NORAD_CAT_ID,OBJECT_NAME,OBJECT_TYPE,EPOCH,MEAN_MOTION,ECCENTRICITY,INCLINATION,RA_OF_ASC_NODE,ARG_OF_PERICENTER,MEAN_ANOMALY,BSTAR,MEAN_MOTION_DOT,MEAN_MOTION_DDOT,TLE_LINE0,TLE_LINE1,TLE_LINE2,SEMIMAJOR_AXIS,PERIOD,APOGEE,PERIGEE,DECAYED
52636.0,STARLINK-3967,PAYLOAD,2023-10-20 04:24:52,15.08860238,0.0001495,53.216,221.4624,89.6442,270.4721,0.00074056,0.00011524,0.0,0 STARLINK-3967,1 52636U 22052AQ  23293.18393964  .00011524  00000-0  74056-3 0  9993,2 52636  53.2160 221.4624 0001495  89.6442 270.4721 15.08860238 79420,6917.819,95.436,540.718,538.649,0.0
52636.0,STARLINK-3967,PAYLOAD,2023-10-21 02:40:17,15.08827166,0.0001407,53.2162,217.2978,117.1886,242.925,0.00053513,8.236e-05,0.0,0 STARLINK-3967,1 52636U 22052AQ  23294.11131217  .00008236  00000-0  53513-3 0  9999,2 52636  53.2162 217.2978 0001407 117.1886 242.9250 15.08827166 79940,6917.92,95.438,540.758,538.811,0.0
52636.0,STARLINK-3967,PAYLOAD,2023-10-21 12:12:36,15.08836188,0.0001395,53.2172,215.5117,106.0,254.1146,0.00073695,0.00011459,0.0,0 STARLINK-3967,1 52636U 22052AQ  23294.50875444  .00011459  00000-0  73695-3 0  9993,2 52636  53.2172 215.5117 0001395 106.0000 254.1146 15.08836188 79626,6917.892,95.438,540.722,538.792,0.0
52636.0,STARLINK-3967,PAYLOAD,2023-10-22 00:55:40,15.08882414,0.0001414,53.2151,213.1369,90.7104,269.405,0.0015943,0.00025206,0.0,0 STARLINK-3967,1 52636U 22052AQ  23295.03866385  .00025206  00000-0  15943-2 0  9992,2 52636  53.2151 213.1369 0001414  90.7104 269.4050 15.08882414 80080,6917.751,95.435,540.594,538.638,0.0
52636.0,STARLINK-3967,PAYLOAD,2023-10-22 12:03:22,15.08845688,0.0002571,53.2166,211.0544,78.692,281.4361,-7.9656e-05,-1.556e-05,0.0,0 STARLINK-3967,1 52636U 22052AQ  23295.50234810 -.00001556  00000-0 -79656-4 0  9993,2 52636  53.2166 211.0544 0002571  78.6920 281.4361 15.08845688 79779,6917.863,95.437,541.507,537.949,0.0
52636.0,STARLINK-3967,PAYLOAD,2023-10-23 00:46:28,15.08824943,0.0001554,53.2157,208.6763,74.622,285.4944,0.0012205,0.00019182,0.0,0 STARLINK-3967,1 52636U 22052AQ  23296.03227266  .00019182  00000-0  12205-2 0  9996,2 52636  53.2157 208.6763 0001554  74.6220 285.4944 15.08824943 80238,6917.926,95.439,540.866,538.716,0.0
52636.0,STARLINK-3967,PAYLOAD,2023-10-23 21:26:29,15.08854514,0.0001732,53.2163,204.8096,82.2868,277.832,0.0014498,0.0002287,0.0,0 STARLINK-3967,1 52636U 22052AQ  23296.89339625  .00022870  00000-0  14498-2 0  9997,2 52636  53.2163 204.8096 0001732  82.2868 277.8320 15.08854514 79983,6917.836,95.437,540.899,538.503,0.0
52636.0,STARLINK-3967,PAYLOAD,2023-10-24 03:48:01,15.08862685,0.0001634,53.2165,203.6214,73.9398,286.1774,0.0012707,0.00020006,0.0,0 STARLINK-3967,1 52636U 22052AQ  23297.15835299  .00020006  00000-0  12707-2 0  9995,2 52636  53.2165 203.6214 0001634  73.9398 286.1774 15.08862685 80403,6917.811,95.436,540.806,538.546,0.0
52636.0,STARLINK-3967,PAYLOAD,2023-10-25 02:03:25,15.08858631,0.0001519,53.2168,199.4577,81.1738,278.9426,0.00070889,0.00011018,0.0,0 STARLINK-3967,1 52636U 22052AQ  23298.08570961  .00011018  00000-0  70889-3 0  9999,2 52636  53.2168 199.4577 0001519  81.1738 278.9426 15.08858631 80545,6917.823,95.436,540.739,538.638,0.0
52636.0,STARLINK-3967,PAYLOAD,2023-10-25 22:43:26,15.08842157,0.0001635,53.2174,195.5938,86.3722,273.7457,0.00011894,1.606e-05,0.0,0 STARLINK-3967,1 52636U 22052AQ  23298.94683158  .00001606  00000-0  11894-3 0  9990,2 52636  53.2174 195.5938 0001635  86.3722 273.7457 15.08842157 80294,6917.874,95.437,540.87,538.608,0.0
52636.0,STARLINK-3967,PAYLOAD,2023-10-26 00:18:49,15.08847246,0.0001703,53.2173,195.2948,82.6899,277.4286,0.00017801,2.547e-05,0.0,0 STARLINK-3967,1 52636U 22052AQ  23299.01306968  .00002547  00000-0  17801-3 0  9999,2 52636  53.2173 195.2948 0001703  82.6899 277.4286 15.08847246 80689,6917.858,95.437,540.901,538.545,0.0
52636.0,STARLINK-3967,PAYLOAD,2023-10-26 03:29:35,15.08849559,0.0001699,53.2173,194.6993,81.7303,278.3882,0.00026094,3.868e-05,0.0,0 STARLINK-3967,1 52636U 22052AQ  23299.14554906  .00003868  00000-0  26094-3 0  9991,2 52636  53.2173 194.6993 0001699  81.7303 278.3882 15.08849559 80328,6917.851,95.437,540.892,538.541,0.0
52636.0,STARLINK-3967,PAYLOAD,2023-10-26 22:34:13,15.0884579,0.0001642,53.217,191.1295,98.7225,261.3954,0.00016602,2.356e-05,0.0,0 STARLINK-3967,1 52636U 22052AQ  23299.94042834  .00002356  00000-0  16602-3 0  9996,2 52636  53.2170 191.1295 0001642  98.7225 261.3954 15.08845790 80449,6917.863,95.437,540.864,538.592,0.0
52636.0,STARLINK-3967,PAYLOAD,2023-10-27 03:20:22,15.08851826,0.0001673,53.2169,190.2369,101.9392,258.1788,0.00025895,3.837e-05,0.0,0 STARLINK-3967,1 52636U 22052AQ  23300.13914580  .00003837  00000-0  25895-3 0  9995,2 52636  53.2169 190.2369 0001673 101.9392 258.1788 15.08851826 80856,6917.844,95.437,540.867,538.552,0.0
52636.0,STARLINK-3967,PAYLOAD,2023-10-27 09:41:54,15.08843568,0.0001363,53.2156,189.0442,88.0893,272.0255,0.00019136,2.759e-05,0.0,0 STARLINK-3967,1 52636U 22052AQ  23300.40410624  .00002759  00000-0  19136-3 0  9998,2 52636  53.2156 189.0442 0001363  88.0893 272.0255 15.08843568 80899,6917.869,95.437,540.677,538.792,0.0
52636.0,STARLINK-3967,PAYLOAD,2023-10-27 22:25:00,15.08838497,0.0001672,53.2169,186.6693,93.8076,266.3107,2.7108e-05,1.43e-06,0.0,0 STARLINK-3967,1 52636U 22052AQ  23300.93403177  .00000143  00000-0  27108-4 0  9995,2 52636  53.2169 186.6693 0001672  93.8076 266.3107 15.08838497 80598,6917.885,95.438,540.907,538.593,0.0
52636.0,STARLINK-3967,PAYLOAD,2023-10-28 00:00:23,15.0884024,0.0001629,53.2168,186.3722,92.2796,267.8383,6.2133e-05,7.01e-06,0.0,0 STARLINK-3967,1 52636U 22052AQ  23301.00027110  .00000701  00000-0  62133-4 0  9990,2 52636  53.2168 186.3722 0001629  92.2796 267.8383 15.08840240 80985,6917.88,95.438,540.872,538.618,0.0
52636.0,STARLINK-3967,PAYLOAD,2023-10-28 09:32:42,15.08839176,0.0001505,53.2162,184.5906,90.4885,269.6279,5.6695e-05,6.14e-06,0.0,0 STARLINK-3967,1 52636U 22052AQ  23301.39771154  .00000614  00000-0  56695-4 0  9995,2 52636  53.2162 184.5906 0001505  90.4885 269.6279 15.08839176 80660,6917.883,95.438,540.789,538.707,0.0
52636.0,STARLINK-3967,PAYLOAD,2023-10-28 20:40:24,15.08835392,0.0001807,53.2167,182.5074,93.1506,266.9693,-5.0524e-06,-3.69e-06,0.0,0 STARLINK-3967,1 52636U 22052AQ  23301.86139668 -.00000369  00000-0 -50524-5 0  9990,2 52636  53.2167 182.5074 0001807  93.1506 266.9693 15.08835392 81111,6917.894,95.438,541.01,538.509,0.0
52636.0,STARLINK-3967,PAYLOAD,2023-10-28 22:15:47,15.08830522,0.0001003,53.2159,182.2113,99.0406,261.07,-0.00011189,-2.068e-05,0.0,0 STARLINK-3967,1 52636U 22052AQ  23301.92763703 -.00002068  00000-0 -11189-3 0  9990,2 52636  53.2159 182.2113 0001003  99.0406 261.0700 15.08830522 80748,6917.909,95.438,540.468,539.08,0.0
52636.0,STARLINK-3967,PAYLOAD,2023-10-29 09:23:29,15.0884063,0.0001296,53.2155,180.1294,99.2885,260.8254,0.00018023,2.582e-05,0.0,0 STARLINK-3967,1 52636U 22052AQ  23302.39131591  .00002582  00000-0  18023-3 0  9999,2 52636  53.2155 180.1294 0001296  99.2885 260.8254 15.08840630 80818,6917.878,95.438,540.64,538.847,0.0
52636.0,STARLINK-3967,PAYLOAD,2023-10-29 22:06:34,15.08848665,0.0001393,53.2152,177.7518,91.3172,268.798,0.00034857,5.265e-05,0.0,0 STARLINK-3967,1 52636U 22052AQ  23302.92123434  .00005265  00000-0  34857-3 0  9999,2 52636  53.2152 177.7518 0001393  91.3172 268.7980 15.08848665 80893,6917.854,95.437,540.683,538.755,0.0
52636.0,STARLINK-3967,PAYLOAD,2023-10-30 01:17:20,15.08854049,0.0001363,53.2151,177.1564,95.9032,264.2116,0.00040113,6.104e-05,0.0,0 STARLINK-3967,1 52636U 22052AQ  23303.05371118  .00006104  00000-0  40113-3 0  9993,2 52636  53.2151 177.1564 0001363  95.9032 264.2116 15.08854049 81299,6917.837,95.437,540.645,538.76,0.0
52636.0,STARLINK-3967,PAYLOAD,2023-10-30 09:14:17,15.08837853,0.0001803,53.2168,175.6692,83.7636,276.3562,0.00010337,1.357e-05,0.0,0 STARLINK-3967,1 52636U 22052AQ  23303.38491921  .00001357  00000-0  10337-3 0  9994,2 52636  53.2168 175.6692 0001803  83.7636 276.3562 15.08837853 81345,6917.887,95.438,540.999,538.505,0.0
52636.0,STARLINK-3967,PAYLOAD,2023-10-30 21:57:22,15.08835283,0.0001511,53.2151,173.2917,83.4334,276.683,1.2065e-05,-9.6e-07,0.0,0 STARLINK-3967,1 52636U 22052AQ  23303.91484162 -.00000096  00000-0  12065-4 0  9993,2 52636  53.2151 173.2917 0001511  83.4334 276.6830 15.08835283 81042,6917.895,95.438,540.805,538.715,0.0
52636.0,STARLINK-3967,PAYLOAD,2023-10-31 20:12:45,15.08847216,0.0001472,53.2151,169.1272,91.8094,268.3067,0.00025201,3.726e-05,0.0,0 STARLINK-3967,1 52636U 22052AQ  23304.84219771  .00003726  00000-0  25201-3 0  9995,2 52636  53.2151 169.1272 0001472  91.8094 268.3067 15.08847216 81568,6917.858,95.437,540.742,538.705,0.0
52636.0,STARLINK-3967,PAYLOAD,2023-10-31 21:48:08,15.08850459,0.000153,53.2158,168.8288,94.5745,265.5422,0.00026736,3.971e-05,0.0,0 STARLINK-3967,1 52636U 22052AQ  23304.90843621  .00003971  00000-0  26736-3 0  9995,2 52636  53.2158 168.8288 0001530  94.5745 265.5422 15.08850459 81192,6917.848,95.437,540.772,538.655,0.0
52636.0,STARLINK-3967,PAYLOAD,2023-11-01 20:03:32,15.08847441,0.0001608,53.2161,164.6652,103.4388,256.6784,0.00025008,3.695e-05,0.0,0 STARLINK-3967,1 52636U 22052AQ  23305.83579653  .00003695  00000-0  25008-3 0  9993,2 52636  53.2161 164.6652 0001608 103.4388 256.6784 15.08847441 81711,6917.858,95.437,540.835,538.61,0.0
52636.0,STARLINK-3967,PAYLOAD,2023-11-01 21:38:55,15.08850073,0.0001415,53.216,164.3692,86.3451,273.7703,0.00026716,3.968e-05,0.0,0 STARLINK-3967,1 52636U 22052AQ  23305.90203596  .00003968  00000-0  26716-3 0  9991,2 52636  53.2160 164.3692 0001415  86.3451 273.7703 15.08850073 81342,6917.85,95.437,540.693,538.736,0.0
52636.0,STARLINK-3967,PAYLOAD,2023-11-02 07:11:14,15.08846255,0.0001417,53.2157,162.5825,79.8148,280.3004,0.00013505,1.862e-05,0.0,0 STARLINK-3967,1 52636U 22052AQ  23306.29947524  .00001862  00000-0  13505-3 0  9993,2 52636  53.2157 162.5825 0001417  79.8148 280.3004 15.08846255 81400,6917.861,95.437,540.707,538.746,0.0
